SL-14 R/B               
1 19574U 88093B   25020.59507446  .00000947  00000+0  10784-3 0  9995
2 19574  82.5295  69.6409 0019958 328.4318 145.2631 14.85058201939719
SL-16 R/B               
1 19650U 88102B   25020.18468473  .00000123  00000+0  86471-4 0  9995
2 19650  71.0002 301.4953 0016570 278.6184  81.3062 14.16064400868359
INTERCOSMOS 24          
1 20261U 89080A   25020.46153456  .00000813  00000+0  23503-3 0  9996
2 20261  82.6066  13.0624 1191869 171.0680 191.3877 12.58686233614792
SL-14 R/B               
1 20262U 89080C   25020.57735172  .00000486  00000+0  13859-3 0  9999
2 20262  82.5909  78.4456 1232506  48.9009 321.2101 12.50135649608527
DELTA 1 R/B             
1 20323U 89089B   25020.59984618  .00001158  00000+0  29809-3 0  9998
2 20323  97.1210 287.7036 0069434 348.1417  11.8142 14.50152710835851
ARIANE 40 R/B           
1 20443U 90005H   25020.14818783  .00000757  00000+0  25663-3 0  9999
2 20443  98.3674  86.8237 0010300  14.5087 345.6395 14.39439048833302
DELTA 2 R/B(1)          
1 20453U 90008B   25020.10078166  .00035451  00000+0  99772-3 0  9993
2 20453  35.6147 293.5633 0159716 123.2263 238.3884 15.23681643862451
COSMOS 2058             
1 20465U 90010A   25020.61937179  .00007373  00000+0  48890-3 0  9990
2 20465  82.4872  92.6861 0011818 281.5353  78.4548 15.07080877879933
SL-14 R/B               
1 20466U 90010B   25020.23619448  .00001119  00000+0  13451-3 0  9992
2 20466  82.5037 295.5290 0018817 219.0994 140.8862 14.83012285867190
SL-14 R/B               
1 20511U 90018B   25020.60108956  .00000848  00000+0  10480-3 0  9996
2 20511  82.5197 249.0526 0016909  15.9088 344.2653 14.81594948861406
HST                     
1 20580U 90037B   25020.18847195  .00013260  00000+0  54679-3 0  9991
2 20580  28.4692 326.2195 0002444 256.2852 103.7470 15.22522409710080
SL-16 R/B               
1 20625U 90046B   25020.56317688  .00000385  00000+0  22357-3 0  9994
2 20625  70.9994  85.4951 0015602 219.4505 140.5483 14.14929667789959
COSMOS 2084             
1 20663U 90055A   25020.17692651  .00006373  00000+0  46333-3 0  9992
2 20663  62.7915 302.4449 0083768 140.1554 220.5737 15.02009258874127
SL-6 R/B(2)             
1 20666U 90055D   25020.62006470  .00005002  00000+0  39680-3 0  9998
2 20666  62.7830 215.7351 0051308 167.0536 193.1893 15.00769030876137
SL-8 R/B                
1 20775U 90078B   25020.59029386  .00023557  00000+0  84792-3 0  9990
2 20775  82.9093 257.8789 0426671 306.7014  49.5694 14.71526539748174
SL-8 R/B                
1 21088U 91006B   25020.61492892  .00000139  00000+0  12436-3 0  9996
2 21088  82.9435 117.3477 0023837 111.5851   4.5887 13.77418354707208
OKEAN-3                 
1 21397U 91039A   25020.48275783  .00006597  00000+0  51077-3 0  9996
2 21397  82.5187  16.1395 0013154 299.5762  60.4152 15.01240548802967
COSMOS 2151             
1 21422U 91042A   25020.36999677  .00004542  00000+0  38341-3 0  9998
2 21422  82.4990 121.6389 0012791  20.7852 339.3888 14.97865873801277
SL-14 R/B               
1 21423U 91042B   25020.63782855  .00000820  00000+0  10189-3 0  9992
2 21423  82.4912 247.3829 0017646 153.7650 206.4462 14.81310142791912
ERS-1                   
1 21574U 91050A   25020.60494068  .00000786  00000+0  26827-3 0  9998
2 21574  98.7904  23.4243 0032037 349.2983  10.7518 14.38994411756317
ARIANE 40 R/B           
1 21610U 91050F   25020.59562058  .00000845  00000+0  26823-3 0  9994
2 21610  98.2621  82.0120 0002201 231.3320 128.7673 14.42414038759435
INTERCOSMOS 25          
1 21819U 91086A   25020.46508617  .00002685  00000+0  53653-3 0  9996
2 21819  82.6037 199.5282 1494457 286.6862  57.5770 12.10047814446662
SL-8 R/B                
1 21876U 92008B   25020.60660911  .00000054  00000+0  39663-4 0  9990
2 21876  82.9247 214.9466 0034137 206.7388 213.9047 13.75897367652614
SL-8 R/B                
1 21938U 92020B   25020.60556970  .00000108  00000+0  96740-4 0  9991
2 21938  82.9302 100.5679 0029212  13.7135  96.3348 13.75486007644348
USA 81                  
1 21949U 92023A   25020.49105407  .00000497  00000+0  17733-3 0  9993
2 21949  85.0081   9.7891 0001220  86.8631 273.2701 14.32142189 35645
COSMOS 2219             
1 22219U 92076A   25020.60804375  .00000037  00000+0  43937-4 0  9991
2 22219  71.0608 161.5323 0015619 114.2982 245.9774 14.13986031659981
SL-16 R/B               
1 22220U 92076B   25020.33201699 -.00000050  00000+0 -10002-5 0  9998
2 22220  71.0018 339.0450 0012870 353.9658 116.1189 14.16762957663288
COSMOS 2221             
1 22236U 92080A   25020.30406406  .00005130  00000+0  47920-3 0  9999
2 22236  82.5069 314.2830 0015965 133.7612 226.4933 14.93889689719020
SL-16 R/B               
1 22285U 92093B   25020.58961275  .00000166  00000+0  10967-3 0  9992
2 22285  71.0223 151.4156 0005998 236.0025 124.0528 14.15358698654702
COSMOS 2228             
1 22286U 92094A   25020.62794034  .00004633  00000+0  42488-3 0  9992
2 22286  82.5176 272.0246 0017200 252.1349 107.7997 14.94585967714303
SL-16 R/B               
1 22566U 93016B   25020.37768972 -.00000081  00000+0 -17140-4 0  9995
2 22566  71.0089   3.2055 0012460 240.0733 119.9153 14.15223716643694
COSMOS 2242             
1 22626U 93024A   25020.25221525  .00005318  00000+0  49424-3 0  9991
2 22626  82.5208 301.3859 0015101 255.0880 104.8668 14.94115834718605
SL-16 R/B               
1 22803U 93059B   25020.56387774  .00000408  00000+0  22611-3 0  9993
2 22803  70.9901 162.2657 0015229 124.1922 236.0648 14.17132189621007
ARIANE 40 R/B           
1 22830U 93061H   25020.60490007  .00000569  00000+0  22581-3 0  9999
2 22830  98.5463  91.4365 0011678  68.9506 291.2926 14.32505390634957
COSMOS 2278             
1 23087U 94023A   25020.26977884  .00000188  00000+0  12312-3 0  9996
2 23087  71.0559 319.9655 0011276 293.8250  66.1690 14.14244656586355
SL-16 R/B               
1 23088U 94023B   25020.58124522  .00000322  00000+0  19130-3 0  9990
2 23088  70.9974 218.3999 0004717 228.2555 131.8164 14.14933278587655
SL-16 R/B               
1 23343U 94074B   25020.60014802  .00001112  00000+0  15818-3 0  9999
2 23343  97.7605  62.1512 0007869 119.7607 357.7861 14.78746498626187
SL-16 R/B               
1 23405U 94077B   25020.58248250  .00000418  00000+0  23853-3 0  9990
2 23405  70.9830 141.5358 0000758  22.8940 337.2216 14.15480579557774
ARIANE 40+ R/B          
1 23561U 95021B   25020.19171623  .00000779  00000+0  26472-3 0  9999
2 23561  98.5025  91.1258 0005836 304.7275 115.1116 14.39332023559751
SL-16 R/B               
1 23705U 95058B   25020.28638112 -.00000050  00000+0 -13163-5 0  9999
2 23705  71.0234 328.1397 0011589  18.7424 341.4123 14.15420287509353
SL-16 R/B               
1 24298U 96051B   25020.28564657 -.00000133  00000+0 -45656-4 0  9996
2 24298  70.7824 329.9761 0015466  15.8740 344.2861 14.12443598463270
ORBVIEW 2 (SEASTAR)     
1 24883U 97037A   25020.37543337  .00000920  00000+0  33888-3 0  9998
2 24883  98.8014 170.0824 0002158 173.4120 186.7093 14.35038889449182
SL-16 R/B               
1 25400U 98043G   25020.45057933  .00000244  00000+0  12106-3 0  9992
2 25400  98.7715 327.2764 0010646 129.4873 230.7250 14.25906881380095
SL-16 R/B               
1 25407U 98045B   25020.28733430 -.00000074  00000+0 -13021-4 0  9996
2 25407  71.0129 330.8942 0009837 289.3634  70.6425 14.16101712368578
ISS (ZARYA)             
1 25544U 98067A   25020.74404829  .00040029  00000+0  69807-3 0  9994
2 25544  51.6406 317.3852 0002680 125.1572 317.6588 15.50311107492290
CZ-4B R/B               
1 25732U 99025C   25020.59801205  .00000198  00000+0  11654-3 0  9990
2 25732  98.7231  68.3305 0038227  92.1539  25.0057 14.18126567329618
OKEAN-O                 
1 25860U 99039A   25020.60263173  .00001566  00000+0  21710-3 0  9999
2 25860  98.0067  78.3755 0000901 110.9065 249.2243 14.79376494373294
SL-16 R/B               
1 25861U 99039B   25020.58536804  .00001416  00000+0  18984-3 0  9994
2 25861  98.0595  73.9203 0015578 151.9884 208.2169 14.80915282375706
DELTA 2 R/B             
1 25876U 99041E   25020.56045369  .00006697  00000+0  11255-2 0  9991
2 25876  51.7627 149.1371 0510285 210.6393 146.3801 14.09898324304704
HELIOS 1B               
1 25977U 99064A   25020.60803084  .00003090  00000+0  36247-3 0  9992
2 25977  98.2149 265.3274 0001372  33.2294 326.9006 14.85737091623888
TERRA                   
1 25994U 99068A   25020.61965233  .00001146  00000+0  24600-3 0  9991
2 25994  98.0207  83.4710 0003278  60.9538  95.1106 14.60408334334770
SL-16 R/B               
1 26070U 00006B   25020.61991348 -.00000207  00000+0 -81287-4 0  9991
2 26070  71.0004 246.3235 0014143  90.6744 269.6000 14.15736275290091
TITAN 4B R/B            
1 26474U 00047B   25020.57877080  .00007718  00000+0  53391-3 0  9991
2 26474  67.9913 118.6591 0041982 150.0857 210.2702 15.05457280330648
ENVISAT                 
1 27386U 02009A   25020.50928233  .00000406  00000+0  14577-3 0  9994
2 27386  98.3146 340.4247 0001180  91.0759  21.3250 14.38819866199752
IDEFIX & ARIANE 42P R/B 
1 27422U 02021B   25020.42371278  .00000862  00000+0  34686-3 0  9990
2 27422  98.5494 320.0371 0011399 329.7367  30.3156 14.30596494184921
AQUA                    
1 27424U 02022A   25020.55344031  .00002762  00000+0  57645-3 0  9995
2 27424  98.3596 337.2680 0001946 105.9943 309.0706 14.60710233208395
CZ-4B R/B               
1 27432U 02024C   25020.63168071  .00000133  00000+0  91544-4 0  9990
2 27432  98.9472  69.6911 0051138 114.6878 358.9327 14.14438176170840
MIDORI II (ADEOS-II)    
1 27597U 02056A   25020.43839418  .00000938  00000+0  38987-3 0  9999
2 27597  98.7206 332.5937 0001948 103.1979 256.9420 14.28829515151277
H-2A R/B                
1 27601U 02056E   25020.51844623  .00001028  00000+0  37824-3 0  9998
2 27601  98.2602 353.2026 0069876 314.1072 154.1093 14.33304241154918
